{
    "week": 287,
    "satellites": [
        {
            "Name": "COSMOS 2485 (747)",
            "Line1": "1 39155U 13019A   24279.96012841  .00000046  00000+0  00000+0 0  9990",
            "Line2": "2 39155  65.0933  94.4400 0022308 226.4467 133.4011  2.13101861 89089",
            "SatelliteNumber": "39155",
            "Classification": "U",
            "LaunchYear": "13",
            "LaunchNumber": "019",
            "PieceOfLaunch": "A",
            "EpochYear": "24",
            "EpochDay": 279.96012841,
            "FirstDerivativeMeanMotion": 4.6e-07,
            "SecondDerivativeMeanMotion": "00000+0",
            "BSTAR": "00000+0",
            "SetNumber": "999",
            "Inclination": 65.0933,
            "RAAN": 94.44,
            "Eccentricity": 0.0022308,
            "ArgumentOfPerigee": 226.4467,
            "MeanAnomaly": 133.4011,
            "MeanMotion": 2.13101861,
            "RevolutionNumber": "8908"
        },
        {
            "Name": "COSMOS 2492 (754)",
            "Line1": "1 39620U 14012A   24281.32314125 -.00000045  00000+0  00000+0 0  9994",
            "Line2": "2 39620  65.6247 334.8568 0012798 308.9820  50.9777  2.13103236 82079",
            "SatelliteNumber": "39620",
            "Classification": "U",
            "LaunchYear": "14",
            "LaunchNumber": "012",
            "PieceOfLaunch": "A",
            "EpochYear": "24",
            "EpochDay": 281.32314125,
            "FirstDerivativeMeanMotion": -4.5e-07,
            "SecondDerivativeMeanMotion": "00000+0",
            "BSTAR": "00000+0",
            "SetNumber": "999",
            "Inclination": 65.6247,
            "RAAN": 334.8568,
            "Eccentricity": 0.0012798,
            "ArgumentOfPerigee": 308.982,
            "MeanAnomaly": 50.9777,
            "MeanMotion": 2.13103236,
            "RevolutionNumber": "8207"
        },
        {
            "Name": "COSMOS 2500 (755)",
            "Line1": "1 40001U 14032A   24281.50103155 -.00000044  00000+0  00000+0 0  9999",
            "Line2": "2 40001  65.5618 334.6473 0008953 210.5541 149.4667  2.13105973 80298",
            "SatelliteNumber": "40001",
            "Classification": "U",
            "LaunchYear": "14",
            "LaunchNumber": "032",
            "PieceOfLaunch": "A",
            "EpochYear": "24",
            "EpochDay": 281.50103155,
            "FirstDerivativeMeanMotion": -4.4e-07,
            "SecondDerivativeMeanMotion": "00000+0",
            "BSTAR": "00000+0",
            "SetNumber": "999",
            "Inclination": 65.5618,
            "RAAN": 334.6473,
            "Eccentricity": 0.0008953,
            "ArgumentOfPerigee": 210.5541,
            "MeanAnomaly": 149.4667,
            "MeanMotion": 2.13105973,
            "RevolutionNumber": "8029"
        },
        {
            "Name": "COSMOS 2501 (702K)",
            "Line1": "1 40315U 14075A   24281.28614480  .00000032  00000+0  00000+0 0  9993",
            "Line2": "2 40315  63.6196 211.7813 0020124 209.0049 150.9002  2.13101419 76688",
            "SatelliteNumber": "40315",
            "Classification": "U",
            "LaunchYear": "14",
            "LaunchNumber": "075",
            "PieceOfLaunch": "A",
            "EpochYear": "24",
            "EpochDay": 281.2861448,
            "FirstDerivativeMeanMotion": 3.2e-07,
            "SecondDerivativeMeanMotion": "00000+0",
            "BSTAR": "00000+0",
            "SetNumber": "999",
            "Inclination": 63.6196,
            "RAAN": 211.7813,
            "Eccentricity": 0.0020124,
            "ArgumentOfPerigee": 209.0049,
            "MeanAnomaly": 150.9002,
            "MeanMotion": 2.13101419,
            "RevolutionNumber": "7668"
        },
        {
            "Name": "COSMOS 2514 (751)",
            "Line1": "1 41330U 16008A   24280.79976606 -.00000046  00000+0  00000+0 0  9991",
            "Line2": "2 41330  65.3560 334.1520 0012977 214.6585 145.3307  2.13102658 67445",
            "SatelliteNumber": "41330",
            "Classification": "U",
            "LaunchYear": "16",
            "LaunchNumber": "008",
            "PieceOfLaunch": "A",
            "EpochYear": "24",
            "EpochDay": 280.79976606,
            "FirstDerivativeMeanMotion": -4.6e-07,
            "SecondDerivativeMeanMotion": "00000+0",
            "BSTAR": "00000+0",
            "SetNumber": "999",
            "Inclination": 65.356,
            "RAAN": 334.152,
            "Eccentricity": 0.0012977,
            "ArgumentOfPerigee": 214.6585,
            "MeanAnomaly": 145.3307,
            "MeanMotion": 2.13102658,
            "RevolutionNumber": "6744"
        },
        {
            "Name": "COSMOS 2522 (752)",
            "Line1": "1 42939U 17055A   24281.57811448  .00000033  00000+0  00000+0 0  9994",
            "Line2": "2 42939  64.0807 212.9261 0008505 239.2772 120.6551  2.13102003 54817",
            "SatelliteNumber": "42939",
            "Classification": "U",
            "LaunchYear": "17",
            "LaunchNumber": "055",
            "PieceOfLaunch": "A",
            "EpochYear": "24",
            "EpochDay": 281.57811448,
            "FirstDerivativeMeanMotion": 3.3e-07,
            "SecondDerivativeMeanMotion": "00000+0",
            "BSTAR": "00000+0",
            "SetNumber": "999",
            "Inclination": 64.0807,
            "RAAN": 212.9261,
            "Eccentricity": 0.0008505,
            "ArgumentOfPerigee": 239.2772,
            "MeanAnomaly": 120.6551,
            "MeanMotion": 2.13102003,
            "RevolutionNumber": "5481"
        },
        {
            "Name": "COSMOS 2527 (756)",
            "Line1": "1 43508U 18053A   24281.53755344  .00000055  00000+0  00000+0 0  9998",
            "Line2": "2 43508  65.2542  94.5620 0007563 213.5945 146.3889  2.13102362 49116",
            "SatelliteNumber": "43508",
            "Classification": "U",
            "LaunchYear": "18",
            "LaunchNumber": "053",
            "PieceOfLaunch": "A",
            "EpochYear": "24",
            "EpochDay": 281.53755344,
            "FirstDerivativeMeanMotion": 5.5e-07,
            "SecondDerivativeMeanMotion": "00000+0",
            "BSTAR": "00000+0",
            "SetNumber": "999",
            "Inclination": 65.2542,
            "RAAN": 94.562,
            "Eccentricity": 0.0007563,
            "ArgumentOfPerigee": 213.5945,
            "MeanAnomaly": 146.3889,
            "MeanMotion": 2.13102362,
            "RevolutionNumber": "4911"
        },
        {
            "Name": "COSMOS 2529 (757)",
            "Line1": "1 43687U 18086A   24281.16693775  .00000034  00000+0  00000+0 0  9997",
            "Line2": "2 43687  64.2964 213.4831 0009905 260.6888  99.2129  2.13102032 46112",
            "SatelliteNumber": "43687",
            "Classification": "U",
            "LaunchYear": "18",
            "LaunchNumber": "086",
            "PieceOfLaunch": "A",
            "EpochYear": "24",
            "EpochDay": 281.16693775,
            "FirstDerivativeMeanMotion": 3.4e-07,
            "SecondDerivativeMeanMotion": "00000+0",
            "BSTAR": "00000+0",
            "SetNumber": "999",
            "Inclination": 64.2964,
            "RAAN": 213.4831,
            "Eccentricity": 0.0009905,
            "ArgumentOfPerigee": 260.6888,
            "MeanAnomaly": 99.2129,
            "MeanMotion": 2.13102032,
            "RevolutionNumber": "4611"
        },
        {
            "Name": "COSMOS 2534 (758)",
            "Line1": "1 44299U 19030A   24280.75813248  .00000033  00000+0  00000+0 0  9999",
            "Line2": "2 44299  64.3695 213.4607 0011935 282.2650 258.2549  2.13102087 41745",
            "SatelliteNumber": "44299",
            "Classification": "U",
            "LaunchYear": "19",
            "LaunchNumber": "030",
            "PieceOfLaunch": "A",
            "EpochYear": "24",
            "EpochDay": 280.75813248,
            "FirstDerivativeMeanMotion": 3.3e-07,
            "SecondDerivativeMeanMotion": "00000+0",
            "BSTAR": "00000+0",
            "SetNumber": "999",
            "Inclination": 64.3695,
            "RAAN": 213.4607,
            "Eccentricity": 0.0011935,
            "ArgumentOfPerigee": 282.265,
            "MeanAnomaly": 258.2549,
            "MeanMotion": 2.13102087,
            "RevolutionNumber": "4174"
        },
        {
            "Name": "COSMOS 2544 (759)",
            "Line1": "1 44850U 19088A   24281.01243133  .00000051  00000+0  00000+0 0  9995",
            "Line2": "2 44850  65.2410  94.4144 0011571 246.8563 113.0531  2.13102110 37540",
            "SatelliteNumber": "44850",
            "Classification": "U",
            "LaunchYear": "19",
            "LaunchNumber": "088",
            "PieceOfLaunch": "A",
            "EpochYear": "24",
            "EpochDay": 281.01243133,
            "FirstDerivativeMeanMotion": 5.1e-07,
            "SecondDerivativeMeanMotion": "00000+0",
            "BSTAR": "00000+0",
            "SetNumber": "999",
            "Inclination": 65.241,
            "RAAN": 94.4144,
            "Eccentricity": 0.0011571,
            "ArgumentOfPerigee": 246.8563,
            "MeanAnomaly": 113.0531,
            "MeanMotion": 2.1310211,
            "RevolutionNumber": "3754"
        }
    ]
}